[{"OBJECT_NAME":"GENMAT-1","OBJECT_ID":"2023-174W","EPOCH":"2026-03-09T18:03:23.351040","MEAN_MOTION":15.32594666,"ECCENTRICITY":0.00074416,"INCLINATION":97.3728,"RA_OF_ASC_NODE":146.8236,"ARG_OF_PERICENTER":169.2515,"MEAN_ANOMALY":190.8888,"EPHEMERIS_TYPE":0,"CLASSIFICATION_TYPE":"U","NORAD_CAT_ID":58276,"ELEMENT_SET_NO":999,"REV_AT_EPOCH":12973,"BSTAR":0.00042157222,"MEAN_MOTION_DOT":0.0001321,"MEAN_MOTION_DDOT":0},{"OBJECT_NAME":"STARLINK-35723","OBJECT_ID":"2025-244F","EPOCH":"2026-03-09T18:06:15.387264","MEAN_MOTION":15.30210282,"ECCENTRICITY":0.00013227,"INCLINATION":53.1584,"RA_OF_ASC_NODE":229.3139,"ARG_OF_PERICENTER":85.1641,"MEAN_ANOMALY":274.9511,"EPHEMERIS_TYPE":0,"CLASSIFICATION_TYPE":"U","NORAD_CAT_ID":66211,"ELEMENT_SET_NO":999,"REV_AT_EPOCH":2166,"BSTAR":0.0010713325,"MEAN_MOTION_DOT":0.00031515,"MEAN_MOTION_DDOT":0}]
